start=new Date('2022-03-01T00:00:00.000Z').valueOf();
sats=[{"DECAY_DATE":null,"CLASSIFICATION_TYPE":"U","ELEMENT_SET_NO":"999","MEAN_ANOMALY":"287.6476","ECCENTRICITY":"0.00015700","SITE":"AFETR","EPOCH":"2022-02-28T15:52:01.587936","INCLINATION":"53.0539","RA_OF_ASC_NODE":"215.8347","LAUNCH_DATE":"2020-08-07","GP_ID":"197409394","PERIAPSIS":"546.138","CENTER_NAME":"EARTH","MEAN_MOTION":"15.06396091","ARG_OF_PERICENTER":"72.4685","TIME_SYSTEM":"UTC","REF_FRAME":"TEME","OBJECT_NAME":"STARLINK-1529","MEAN_MOTION_DDOT":"0.0000000000000","MEAN_MOTION_DOT":"0.00001284","PERIOD":"95.592","SEMIMAJOR_AXIS":"6925.361","EPHEMERIS_TYPE":"0","MEAN_ELEMENT_THEORY":"SGP4","TLE_LINE1":"1 46067U 20055AS  22059.66112949  .00001284  00000-0  10510-3 0  9996","BSTAR":"0.00010510000000","RCS_SIZE":"LARGE","OBJECT_ID":"2020-055AS","APOAPSIS":"548.313","NORAD_CAT_ID":"46067","COUNTRY_CODE":"US","FILE":"3334872","TLE_LINE2":"2 46067  53.0539 215.8347 0001570  72.4685 287.6476 15.06396091 87741","OBJECT_TYPE":"PAYLOAD","REV_AT_EPOCH":"8774"},{"RA_OF_ASC_NODE":"214.8827","LAUNCH_DATE":"2020-08-07","INCLINATION":"53.0548","EPOCH":"2022-02-28T20:54:34.054272","SITE":"AFETR","MEAN_ANOMALY":"289.9137","ECCENTRICITY":"0.00014200","DECAY_DATE":null,"CLASSIFICATION_TYPE":"U","ELEMENT_SET_NO":"999","OBJECT_TYPE":"PAYLOAD","REV_AT_EPOCH":"8777","COUNTRY_CODE":"US","NORAD_CAT_ID":"46068","APOAPSIS":"548.207","TLE_LINE2":"2 46068  53.0548 214.8827 0001420  70.2004 289.9137 15.06396578 87771","FILE":"3334872","RCS_SIZE":"LARGE","OBJECT_ID":"2020-055AT","BSTAR":"0.00006729000000","TLE_LINE1":"1 46068U 20055AT  22059.87122748  .00000721  00000-0  67290-4 0  9991","EPHEMERIS_TYPE":"0","MEAN_ELEMENT_THEORY":"SGP4","MEAN_MOTION_DOT":"0.00000721","OBJECT_NAME":"STARLINK-1532","MEAN_MOTION_DDOT":"0.0000000000000","SEMIMAJOR_AXIS":"6925.359","PERIOD":"95.592","PERIAPSIS":"546.241","GP_ID":"197408142","MEAN_MOTION":"15.06396578","CENTER_NAME":"EARTH","REF_FRAME":"TEME","ARG_OF_PERICENTER":"70.2004","TIME_SYSTEM":"UTC"},{"OBJECT_ID":"2020-055AU","RCS_SIZE":"LARGE","REV_AT_EPOCH":"8777","OBJECT_TYPE":"PAYLOAD","FILE":"3334872","TLE_LINE2":"2 46069  53.0539 215.1114 0001334  73.9752 286.1384 15.06401780 87774","NORAD_CAT_ID":"46069","APOAPSIS":"548.132","COUNTRY_CODE":"US","PERIOD":"95.592","SEMIMAJOR_AXIS":"6925.343","OBJECT_NAME":"STARLINK-1533","MEAN_MOTION_DDOT":"0.0000000000000","MEAN_MOTION_DOT":"0.00000597","TIME_SYSTEM":"UTC","ARG_OF_PERICENTER":"73.9752","REF_FRAME":"TEME","GP_ID":"197408392","PERIAPSIS":"546.284","MEAN_MOTION":"15.06401780","CENTER_NAME":"EARTH","TLE_LINE1":"1 46069U 20055AU  22059.81961993  .00000597  00000-0  58950-4 0  9993","BSTAR":"0.00005895000000","EPHEMERIS_TYPE":"0","MEAN_ELEMENT_THEORY":"SGP4","EPOCH":"2022-02-28T19:40:15.161952","LAUNCH_DATE":"2020-08-07","RA_OF_ASC_NODE":"215.1114","INCLINATION":"53.0539","ELEMENT_SET_NO":"999","CLASSIFICATION_TYPE":"U","DECAY_DATE":null,"SITE":"AFETR","ECCENTRICITY":"0.00013340","MEAN_ANOMALY":"286.1384"},{"MEAN_MOTION_DOT":"-0.00000021","MEAN_MOTION_DDOT":"0.0000000000000","OBJECT_NAME":"STARLINK-1536","SEMIMAJOR_AXIS":"6925.340","PERIOD":"95.592","GP_ID":"197409144","PERIAPSIS":"546.219","MEAN_MOTION":"15.06402668","CENTER_NAME":"EARTH","REF_FRAME":"TEME","TIME_SYSTEM":"UTC","ARG_OF_PERICENTER":"78.2844","BSTAR":"0.00001747100000","TLE_LINE1":"1 46070U 20055AV  22059.70166850 -.00000021  00000-0  17471-4 0  9998","EPHEMERIS_TYPE":"0","MEAN_ELEMENT_THEORY":"SGP4","RCS_SIZE":"LARGE","OBJECT_ID":"2020-055AV","OBJECT_TYPE":"PAYLOAD","REV_AT_EPOCH":"8775","COUNTRY_CODE":"US","NORAD_CAT_ID":"46070","APOAPSIS":"548.192","FILE":"3334872","TLE_LINE2":"2 46070  53.0555 215.6396 0001425  78.2844 281.8305 15.06402668 87751","DECAY_DATE":null,"CLASSIFICATION_TYPE":"U","ELEMENT_SET_NO":"999","SITE":"AFETR","MEAN_ANOMALY":"281.8305","ECCENTRICITY":"0.00014250","EPOCH":"2022-02-28T16:50:24.158400","RA_OF_ASC_NODE":"215.6396","LAUNCH_DATE":"2020-08-07","INCLINATION":"53.0555"},{"SITE":"AFETR","ECCENTRICITY":"0.00013070","MEAN_ANOMALY":"293.0422","CLASSIFICATION_TYPE":"U","ELEMENT_SET_NO":"999","DECAY_DATE":null,"LAUNCH_DATE":"2020-08-07","RA_OF_ASC_NODE":"214.9673","INCLINATION":"53.0531","EPOCH":"2022-02-28T20:28:00.732000","BSTAR":"0.00008993100000","TLE_LINE1":"1 46071U 20055AW  22059.85278625  .00001059  00000-0  89931-4 0  9990","EPHEMERIS_TYPE":"0","MEAN_ELEMENT_THEORY":"SGP4","SEMIMAJOR_AXIS":"6925.326","PERIOD":"95.592","MEAN_MOTION_DOT":"0.00001059","OBJECT_NAME":"STARLINK-1538","MEAN_MOTION_DDOT":"0.0000000000000","REF_FRAME":"TEME","ARG_OF_PERICENTER":"67.0705","TIME_SYSTEM":"UTC","GP_ID":"197409894","PERIAPSIS":"546.286","MEAN_MOTION":"15.06407455","CENTER_NAME":"EARTH","REV_AT_EPOCH":"8777","OBJECT_TYPE":"PAYLOAD","TLE_LINE2":"2 46071  53.0531 214.9673 0001307  67.0705 293.0422 15.06407455 87773","FILE":"3334872","COUNTRY_CODE":"US","NORAD_CAT_ID":"46071","APOAPSIS":"548.096","OBJECT_ID":"2020-055AW","RCS_SIZE":"LARGE"},{"INCLINATION":"53.0563","LAUNCH_DATE":"2020-08-07","RA_OF_ASC_NODE":"214.8620","EPOCH":"2022-02-28T21:03:48.947040","ECCENTRICITY":"0.00016450","MEAN_ANOMALY":"296.0696","SITE":"AFETR","ELEMENT_SET_NO":"999","CLASSIFICATION_TYPE":"U","DECAY_DATE":null,"FILE":"3334872","TLE_LINE2":"2 46072  53.0563 214.8620 0001645  64.0462 296.0696 15.06399055 87763","APOAPSIS":"548.356","NORAD_CAT_ID":"46072","COUNTRY_CODE":"US","REV_AT_EPOCH":"8776","OBJECT_TYPE":"PAYLOAD","OBJECT_ID":"2020-055AX","RCS_SIZE":"LARGE","EPHEMERIS_TYPE":"0","MEAN_ELEMENT_THEORY":"SGP4","TLE_LINE1":"1 46072U 20055AX  22059.87764985  .00002254  00000-0  17019-3 0  9997","BSTAR":"0.00017019000000","ARG_OF_PERICENTER":"64.0462","TIME_SYSTEM":"UTC","REF_FRAME":"TEME","GP_ID":"197408642","PERIAPSIS":"546.077","CENTER_NAME":"EARTH","MEAN_MOTION":"15.06399055","PERIOD":"95.592","SEMIMAJOR_AXIS":"6925.351","OBJECT_NAME":"STARLINK-1539","MEAN_MOTION_DDOT":"0.0000000000000","MEAN_MOTION_DOT":"0.00002254"},{"INCLINATION":"53.0543","RA_OF_ASC_NODE":"215.3949","LAUNCH_DATE":"2020-08-07","EPOCH":"2022-02-28T18:15:19.263168","MEAN_ANOMALY":"286.7627","ECCENTRICITY":"0.00013800","SITE":"AFETR","DECAY_DATE":null,"ELEMENT_SET_NO":"999","CLASSIFICATION_TYPE":"U","COUNTRY_CODE":"US","APOAPSIS":"548.146","NORAD_CAT_ID":"46073","TLE_LINE2":"2 46073  53.0543 215.3949 0001380  73.3513 286.7627 15.06407530 87755","FILE":"3334872","OBJECT_TYPE":"PAYLOAD","REV_AT_EPOCH":"8775","RCS_SIZE":"LARGE","OBJECT_ID":"2020-055AY","MEAN_ELEMENT_THEORY":"SGP4","EPHEMERIS_TYPE":"0","BSTAR":"0.00020238000000","TLE_LINE1":"1 46073U 20055AY  22059.76063962  .00002735  00000-0  20238-3 0  9994","PERIAPSIS":"546.235","GP_ID":"197408892","MEAN_MOTION":"15.06407530","CENTER_NAME":"EARTH","REF_FRAME":"TEME","TIME_SYSTEM":"UTC","ARG_OF_PERICENTER":"73.3513","MEAN_MOTION_DOT":"0.00002735","MEAN_MOTION_DDOT":"0.0000000000000","OBJECT_NAME":"STARLINK-1542","SEMIMAJOR_AXIS":"6925.325","PERIOD":"95.592"},{"TLE_LINE1":"1 46074U 20055AZ  22059.74590528  .00000342  00000-0  41843-4 0  9994","BSTAR":"0.00004184300000","EPHEMERIS_TYPE":"0","MEAN_ELEMENT_THEORY":"SGP4","OBJECT_NAME":"STARLINK-1549","MEAN_MOTION_DDOT":"0.0000000000000","MEAN_MOTION_DOT":"0.00000342","PERIOD":"95.592","SEMIMAJOR_AXIS":"6925.358","MEAN_MOTION":"15.06396984","GP_ID":"197409644","PERIAPSIS":"545.978","CENTER_NAME":"EARTH","TIME_SYSTEM":"UTC","ARG_OF_PERICENTER":"60.0478","REF_FRAME":"TEME","OBJECT_TYPE":"PAYLOAD","REV_AT_EPOCH":"8774","NORAD_CAT_ID":"46074","APOAPSIS":"548.468","COUNTRY_CODE":"US","FILE":"3334872","TLE_LINE2":"2 46074  53.0539 215.4478 0001798  60.0478 300.0689 15.06396984 87742","RCS_SIZE":"LARGE","OBJECT_ID":"2020-055AZ","SITE":"AFETR","MEAN_ANOMALY":"300.0689","ECCENTRICITY":"0.00017980","DECAY_DATE":null,"CLASSIFICATION_TYPE":"U","ELEMENT_SET_NO":"999","RA_OF_ASC_NODE":"215.4478","LAUNCH_DATE":"2020-08-07","INCLINATION":"53.0539","EPOCH":"2022-02-28T17:54:06.216192"},{"ARG_OF_PERICENTER":"67.3739","TIME_SYSTEM":"UTC","REF_FRAME":"TEME","PERIAPSIS":"546.140","GP_ID":"197409395","CENTER_NAME":"EARTH","MEAN_MOTION":"15.06404384","PERIOD":"95.592","SEMIMAJOR_AXIS":"6925.335","OBJECT_NAME":"STARLINK-1551","MEAN_MOTION_DDOT":"0.0000000000000","MEAN_MOTION_DOT":"0.00000231","EPHEMERIS_TYPE":"0","MEAN_ELEMENT_THEORY":"SGP4","TLE_LINE1":"1 46075U 20055BA  22059.83804670  .00000231  00000-0  34410-4 0  9990","BSTAR":"0.00003441000000","OBJECT_ID":"2020-055BA","RCS_SIZE":"LARGE","TLE_LINE2":"2 46075  53.0531 215.0370 0001531  67.3739 292.7411 15.06404384 87763","FILE":"3334872","NORAD_CAT_ID":"46075","APOAPSIS":"548.260","COUNTRY_CODE":"US","REV_AT_EPOCH":"8776","OBJECT_TYPE":"PAYLOAD","CLASSIFICATION_TYPE":"U","ELEMENT_SET_NO":"999","DECAY_DATE":null,"ECCENTRICITY":"0.00015310","MEAN_ANOMALY":"292.7411","SITE":"AFETR","EPOCH":"2022-02-28T20:06:47.234880","INCLINATION":"53.0531","LAUNCH_DATE":"2020-08-07","RA_OF_ASC_NODE":"215.0370"},{"EPHEMERIS_TYPE":"0","MEAN_ELEMENT_THEORY":"SGP4","BSTAR":"0.00006954500000","TLE_LINE1":"1 46076U 20055BB  22059.73115904  .00000754  00000-0  69545-4 0  9992","REF_FRAME":"TEME","ARG_OF_PERICENTER":"64.3605","TIME_SYSTEM":"UTC","PERIAPSIS":"546.107","GP_ID":"197408143","MEAN_MOTION":"15.06400179","CENTER_NAME":"EARTH","SEMIMAJOR_AXIS":"6925.348","PERIOD":"95.592","MEAN_MOTION_DOT":"0.00000754","OBJECT_NAME":"STARLINK-1552","MEAN_MOTION_DDOT":"0.0000000000000","TLE_LINE2":"2 46076  53.0542 215.5248 0001597  64.3605 295.7549 15.06400179 87736","FILE":"3334872","COUNTRY_CODE":"US","APOAPSIS":"548.319","NORAD_CAT_ID":"46076","REV_AT_EPOCH":"8773","OBJECT_TYPE":"PAYLOAD","OBJECT_ID":"2020-055BB","RCS_SIZE":"LARGE","ECCENTRICITY":"0.00015970","MEAN_ANOMALY":"295.7549","SITE":"AFETR","ELEMENT_SET_NO":"999","CLASSIFICATION_TYPE":"U","DECAY_DATE":null,"INCLINATION":"53.0542","LAUNCH_DATE":"2020-08-07","RA_OF_ASC_NODE":"215.5248","EPOCH":"2022-02-28T17:32:52.141056"}];
